NORAD_CAT_ID,OBJECT_NAME,OBJECT_TYPE,EPOCH,MEAN_MOTION,ECCENTRICITY,INCLINATION,RA_OF_ASC_NODE,ARG_OF_PERICENTER,MEAN_ANOMALY,BSTAR,MEAN_MOTION_DOT,MEAN_MOTION_DDOT,TLE_LINE0,TLE_LINE1,TLE_LINE2,SEMIMAJOR_AXIS,PERIOD,APOGEE,PERIGEE,DECAYED
50173.0,STARLINK-3289,PAYLOAD,2024-08-02 14:59:14,15.0882656,0.0001341,53.2192,341.1586,109.944,250.1697,7.3956e-05,8.89e-06,0.0,0 STARLINK-3289,1 50173U 21125T   24215.62447136  .00000889  00000-0  73956-4 0  9993,2 50173  53.2192 341.1586 0001341 109.9440 250.1697 15.08826560148570,6917.921,95.438,540.714,538.859,0.0
50173.0,STARLINK-3289,PAYLOAD,2024-08-03 13:14:37,15.08848046,0.0001463,53.2199,336.9962,99.7019,260.4138,-6.2448e-07,-2.98e-06,0.0,0 STARLINK-3289,1 50173U 21125T   24216.55182045 -.00000298  00000-0 -62448-6 0  9993,2 50173  53.2199 336.9962 0001463  99.7019 260.4138 15.08848046145620,6917.856,95.437,540.733,538.709,0.0
50173.0,STARLINK-3289,PAYLOAD,2024-08-03 14:50:00,15.08850702,0.0001508,53.2186,336.7,90.5678,269.5487,-1.7783e-05,-5.71e-06,0.0,0 STARLINK-3289,1 50173U 21125T   24216.61805948 -.00000571  00000-0 -17783-4 0  9998,2 50173  53.2186 336.7000 0001508  90.5678 269.5487 15.08850702148720,6917.848,95.437,540.756,538.669,0.0
50173.0,STARLINK-3289,PAYLOAD,2024-08-04 13:05:25,15.08831327,0.0001564,53.2195,332.5361,102.9746,257.142,0.00011367,1.521e-05,0.0,0 STARLINK-3289,1 50173U 21125T   24217.54543098  .00001521  00000-0  11367-3 0  9991,2 50173  53.2195 332.5361 0001564 102.9746 257.1420 15.08831327145774,6917.907,95.438,540.854,538.69,0.0
50173.0,STARLINK-3289,PAYLOAD,2024-08-04 14:40:47,15.08842224,0.0001434,53.2191,332.2392,101.5022,258.6131,0.00021808,3.185e-05,0.0,0 STARLINK-3289,1 50173U 21125T   24217.61166285  .00003185  00000-0  21808-3 0  9997,2 50173  53.2191 332.2392 0001434 101.5022 258.6131 15.08842224148876,6917.874,95.437,540.731,538.747,0.0
50173.0,STARLINK-3289,PAYLOAD,2024-08-04 17:51:33,15.08849374,0.0001273,53.2181,331.6411,94.2508,265.863,0.00019188,2.768e-05,0.0,0 STARLINK-3289,1 50173U 21125T   24217.74413860  .00002768  00000-0  19188-3 0  9999,2 50173  53.2181 331.6411 0001273  94.2508 265.8630 15.08849374145805,6917.852,95.437,540.597,538.836,0.0
50173.0,STARLINK-3289,PAYLOAD,2024-08-05 14:31:33,15.08857269,0.0001618,53.2191,327.7753,91.3584,268.7594,0.00011627,1.564e-05,0.0,0 STARLINK-3289,1 50173U 21125T   24218.60525184  .00001564  00000-0  11627-3 0  9991,2 50173  53.2191 327.7753 0001618  91.3584 268.7594 15.08857269149027,6917.828,95.436,540.812,538.573,0.0
50173.0,STARLINK-3289,PAYLOAD,2024-08-06 00:03:52,15.08853291,0.0001509,53.2186,325.9913,84.8991,275.2174,4.4834e-05,4.26e-06,0.0,0 STARLINK-3289,1 50173U 21125T   24219.00269267  .00000426  00000-0  44834-4 0  9996,2 50173  53.2186 325.9913 0001509  84.8991 275.2174 15.08853291145997,6917.84,95.437,540.749,538.661,0.0
50173.0,STARLINK-3289,PAYLOAD,2024-08-06 12:46:59,15.08837044,0.0001787,53.2207,323.6178,98.6568,261.4626,-1.1325e-05,-4.68e-06,0.0,0 STARLINK-3289,1 50173U 21125T   24219.53262838 -.00000468  00000-0 -11325-4 0  9998,2 50173  53.2207 323.6178 0001787  98.6568 261.4626 15.08837044146077,6917.889,95.438,540.991,538.518,0.0
50173.0,STARLINK-3289,PAYLOAD,2024-08-06 14:22:22,15.08842956,0.0001604,53.2187,323.3202,109.1493,250.9673,-3.0537e-05,-7.74e-06,0.0,0 STARLINK-3289,1 50173U 21125T   24219.59886667 -.00000774  00000-0 -30537-4 0  9992,2 50173  53.2187 323.3202 0001604 109.1493 250.9673 15.08842956149179,6917.871,95.437,540.846,538.627,0.0
50173.0,STARLINK-3289,PAYLOAD,2024-08-06 15:57:44,15.08843235,0.0001668,53.2184,323.022,104.6341,255.4836,-2.2555e-05,-6.47e-06,0.0,0 STARLINK-3289,1 50173U 21125T   24219.66510331 -.00000647  00000-0 -22555-4 0  9992,2 50173  53.2184 323.0220 0001668 104.6341 255.4836 15.08843235146095,6917.871,95.437,540.889,538.582,0.0
50173.0,STARLINK-3289,PAYLOAD,2024-08-07 12:37:46,15.08840231,0.0001753,53.2186,319.1563,106.8655,253.253,-8.7858e-05,-1.686e-05,0.0,0 STARLINK-3289,1 50173U 21125T   24220.52622745 -.00001686  00000-0 -87858-4 0  9993,2 50173  53.2186 319.1563 0001753 106.8655 253.2530 15.08840231149318,6917.88,95.438,540.957,538.532,0.0
50173.0,STARLINK-3289,PAYLOAD,2024-08-08 14:03:55,15.08845757,0.0001629,53.2189,314.3975,80.118,279.9996,0.00015896,2.243e-05,0.0,0 STARLINK-3289,1 50173U 21125T   24221.58606135  .00002243  00000-0  15896-3 0  9995,2 50173  53.2189 314.3975 0001629  80.1180 279.9996 15.08845757149470,6917.863,95.437,540.855,538.601,0.0
50173.0,STARLINK-3289,PAYLOAD,2024-08-09 05:57:47,15.08839096,0.0001542,53.2179,311.4233,92.3543,267.7625,7.9041e-05,9.7e-06,0.0,0 STARLINK-3289,1 50173U 21125T   24222.24846811  .00000970  00000-0  79041-4 0  9994,2 50173  53.2179 311.4233 0001542  92.3543 267.7625 15.08839096146487,6917.883,95.438,540.815,538.681,0.0
50173.0,STARLINK-3289,PAYLOAD,2024-08-09 12:19:19,15.08843973,0.0001656,53.2173,310.2353,71.9704,288.1468,0.00011959,1.616e-05,0.0,0 STARLINK-3289,1 50173U 21125T   24222.51342539  .00001616  00000-0  11959-3 0  9993,2 50173  53.2173 310.2353 0001656  71.9704 288.1468 15.08843973149618,6917.868,95.437,540.879,538.588,0.0
50173.0,STARLINK-3289,PAYLOAD,2024-08-09 15:30:05,15.08851586,0.0001577,53.2161,309.6375,79.3142,280.8027,0.00016505,2.341e-05,0.0,0 STARLINK-3289,1 50173U 21125T   24222.64589841  .00002341  00000-0  16505-3 0  9994,2 50173  53.2161 309.6375 0001577  79.3142 280.8027 15.08851586146549,6917.845,95.437,540.801,538.619,0.0
50173.0,STARLINK-3289,PAYLOAD,2024-08-10 12:10:07,15.08843841,0.0001573,53.2174,305.7753,97.1054,263.0117,-1.6446e-05,-5.5e-06,0.0,0 STARLINK-3289,1 50173U 21125T   24223.50702595 -.00000550  00000-0 -16446-4 0  9990,2 50173  53.2174 305.7753 0001573  97.1054 263.0117 15.08843841146678,6917.869,95.437,540.822,538.645,0.0
50173.0,STARLINK-3289,PAYLOAD,2024-08-11 12:00:53,15.08868991,0.0001409,53.2167,301.3093,88.2961,271.8193,0.00057353,8.859e-05,0.0,0 STARLINK-3289,1 50173U 21125T   24224.50061714  .00008859  00000-0  57353-3 0  9991,2 50173  53.2167 301.3093 0001409  88.2961 271.8193 15.08868991146826,6917.792,95.436,540.631,538.682,0.0
50173.0,STARLINK-3289,PAYLOAD,2024-08-12 05:30:08,15.08849469,0.0001694,53.2174,298.0413,98.609,261.5095,0.00013757,1.903e-05,0.0,0 STARLINK-3289,1 50173U 21125T   24225.22925971  .00001903  00000-0  13757-3 0  9998,2 50173  53.2174 298.0413 0001694  98.6090 261.5095 15.08849469146934,6917.851,95.437,540.888,538.545,0.0
50173.0,STARLINK-3289,PAYLOAD,2024-08-12 11:51:40,15.08864961,0.0001071,53.2173,296.8568,85.2704,274.841,0.00052772,8.126e-05,0.0,0 STARLINK-3289,1 50173U 21125T   24225.49421844  .00008126  00000-0  52772-3 0  9991,2 50173  53.2173 296.8568 0001071  85.2704 274.8410 15.08864961150064,6917.804,95.436,540.41,538.928,0.0
50173.0,STARLINK-3289,PAYLOAD,2024-08-13 05:20:55,15.08838233,6.83e-05,53.2176,293.5851,357.4277,2.6712,-0.00014554,-2.603e-05,0.0,0 STARLINK-3289,1 50173U 21125T   24226.22285939 -.00002603  00000-0 -14554-3 0  9998,2 50173  53.2176 293.5851 0000683 357.4277   2.6712 15.08838233147086,6917.886,95.438,540.223,539.278,0.0
50173.0,STARLINK-3289,PAYLOAD,2024-08-13 11:42:30,15.08743448,0.0001078,53.216,292.3923,85.0408,275.0707,-0.0021401,-0.00034096,0.0,0 STARLINK-3289,1 50173U 21125T   24226.48784748 -.00034096  00000-0 -21401-2 0  9997,2 50173  53.2160 292.3923 0001078  85.0408 275.0707 15.08743448147123,6918.176,95.444,540.786,539.295,0.0
50173.0,STARLINK-3289,PAYLOAD,2024-08-14 11:33:18,15.08833769,0.0001435,53.2169,287.9307,48.9065,311.2051,0.00086952,0.00013575,0.0,0 STARLINK-3289,1 50173U 21125T   24227.48145866  .00013575  00000-0  86952-3 0  9990,2 50173  53.2169 287.9307 0001435  48.9065 311.2051 15.08833769147279,6917.899,95.438,540.757,538.772,0.0
50173.0,STARLINK-3289,PAYLOAD,2024-08-14 21:05:36,15.08839939,0.0001345,53.2162,286.1486,53.2268,306.8848,0.00099296,0.0001555,0.0,0 STARLINK-3289,1 50173U 21125T   24227.87889986  .00015550  00000-0  99296-3 0  9991,2 50173  53.2162 286.1486 0001345  53.2268 306.8848 15.08839939150425,6917.881,95.438,540.676,538.815,0.0
50173.0,STARLINK-3289,PAYLOAD,2024-08-15 09:48:41,15.08847009,0.0001208,53.2161,283.7697,50.7779,309.332,0.0010985,0.00017241,0.0,0 STARLINK-3289,1 50173U 21125T   24228.40881746  .00017241  00000-0  10985-2 0  9993,2 50173  53.2161 283.7697 0001208  50.7779 309.3320 15.08847009150507,6917.859,95.437,540.56,538.888,0.0
50173.0,STARLINK-3289,PAYLOAD,2024-08-15 20:56:22,15.08855623,0.000122,53.2149,281.689,46.4323,313.677,0.00054163,8.346e-05,0.0,0 STARLINK-3289,1 50173U 21125T   24228.87248783  .00008346  00000-0  54163-3 0  9995,2 50173  53.2149 281.6890 0001220  46.4323 313.6770 15.08855623147487,6917.833,95.437,540.542,538.854,0.0
50173.0,STARLINK-3289,PAYLOAD,2024-08-16 09:39:27,15.08852061,0.0001199,53.2155,279.3096,51.7947,308.3153,-9.5525e-05,-1.808e-05,0.0,0 STARLINK-3289,1 50173U 21125T   24229.40240124 -.00001808  00000-0 -95525-4 0  9992,2 50173  53.2155 279.3096 0001199  51.7947 308.3153 15.08852061150654,6917.844,95.437,540.538,538.879,0.0
50173.0,STARLINK-3289,PAYLOAD,2024-08-17 12:41:00,15.08853259,0.0001265,53.2171,274.2516,60.891,299.2209,1.4296e-06,-2.65e-06,0.0,0 STARLINK-3289,1 50173U 21125T   24230.52847533 -.00000265  00000-0  14296-5 0  9996,2 50173  53.2171 274.2516 0001265  60.8910 299.2209 15.08853259147733,6917.84,95.437,540.58,538.83,0.0
50173.0,STARLINK-3289,PAYLOAD,2024-08-18 02:59:28,15.08841023,0.0001195,53.2162,271.5749,58.8437,301.2673,1.7372e-05,-1.1e-07,0.0,0 STARLINK-3289,1 50173U 21125T   24231.12463945 -.00000011  00000-0  17372-4 0  9990,2 50173  53.2162 271.5749 0001195  58.8437 301.2673 15.08841023147829,6917.877,95.437,540.569,538.916,0.0
50173.0,STARLINK-3289,PAYLOAD,2024-08-18 06:10:14,15.08842222,0.0001201,53.2158,270.9819,53.2152,306.895,3.4007e-05,2.53e-06,0.0,0 STARLINK-3289,1 50173U 21125T   24231.25711782  .00000253  00000-0  34007-4 0  9990,2 50173  53.2158 270.9819 0001201  53.2152 306.8950 15.08842222150933,6917.874,95.437,540.569,538.908,0.0
